{"type":"FeatureCollection","features":[{"type":"Feature","id":664,"geometry":{"type":"Point","coordinates":[-122.735068,49.106212]},"properties":{"OBJECTID":664,"FACILITYID":"1002328323","BIKE_RACK_TYPE":"Inverted U","ADDRESS":"5723 176 St","OPERATING_LOCATION":null,"OWNER":"Engineering","CAPACITY":2,"COMMENTS":null}},{"type":"Feature","id":4819,"geometry":{"type":"Point","coordinates":[-122.755145,49.046344]},"properties":{"OBJECTID":4819,"FACILITYID":"1002330886","BIKE_RACK_TYPE":"Inverted U","ADDRESS":"16855 24 Ave","OPERATING_LOCATION":null,"OWNER":"Parks","CAPACITY":26,"COMMENTS":null}},{"type":"Feature","id":2564,"geometry":{"type":"Point","coordinates":[-122.849529,49.197058]},"properties":{"OBJECTID":2564,"FACILITYID":"1002330913","BIKE_RACK_TYPE":"Spiral","ADDRESS":"13458 107A Ave","OPERATING_LOCATION":null,"OWNER":"Parks","CAPACITY":6,"COMMENTS":null}},{"type":"Feature","id":8001,"geometry":{"type":"Point","coordinates":[-122.822353,49.071763]},"properties":{"OBJECTID":8001,"FACILITYID":"1002340512","BIKE_RACK_TYPE":"Coat Hanger","ADDRESS":"South Surrey Park & Ride","OPERATING_LOCATION":null,"OWNER":"TransLink","CAPACITY":8,"COMMENTS":null}},{"type":"Feature","id":4178,"geometry":{"type":"Point","coordinates":[-122.816256,49.041578]},"properties":{"OBJECTID":4178,"FACILITYID":"1002330917","BIKE_RACK_TYPE":"Coat Hanger","ADDRESS":"2199 148 St","OPERATING_LOCATION":null,"OWNER":"Parks","CAPACITY":14,"COMMENTS":null}},{"type":"Feature","id":5457,"geometry":{"type":"Point","coordinates":[-122.830028,49.193919]},"properties":{"OBJECTID":5457,"FACILITYID":"1002330905","BIKE_RACK_TYPE":"Inverted U","ADDRESS":null,"OPERATING_LOCATION":null,"OWNER":"Engineering","CAPACITY":2,"COMMENTS":null}},{"type":"Feature","id":3842,"geometry":{"type":"Point","coordinates":[-122.780327,49.1468]},"properties":{"OBJECTID":3842,"FACILITYID":"1002330895","BIKE_RACK_TYPE":"Coat Hanger","ADDRESS":"15802 80 Ave","OPERATING_LOCATION":null,"OWNER":"Parks","CAPACITY":14,"COMMENTS":null}},{"type":"Feature","id":968,"geometry":{"type":"Point","coordinates":[-122.734864,49.10443]},"properties":{"OBJECTID":968,"FACILITYID":"1002328300","BIKE_RACK_TYPE":"Inverted U","ADDRESS":"5630 176 St","OPERATING_LOCATION":null,"OWNER":"Engineering","CAPACITY":2,"COMMENTS":null}},{"type":"Feature","id":7364,"geometry":{"type":"Point","coordinates":[-122.797441,49.165242]},"properties":{"OBJECTID":7364,"FACILITYID":"1002340513","BIKE_RACK_TYPE":"Inverted U","ADDRESS":"15355 Fraser Hwy","OPERATING_LOCATION":null,"OWNER":"Engineering","CAPACITY":2,"COMMENTS":null}},{"type":"Feature","id":3523,"geometry":{"type":"Point","coordinates":[-122.752993,49.115828]},"properties":{"OBJECTID":3523,"FACILITYID":"1002330896","BIKE_RACK_TYPE":"Coat Hanger","ADDRESS":"Cloverdale Athletic Park","OPERATING_LOCATION":null,"OWNER":"Parks","CAPACITY":12,"COMMENTS":null}},{"type":"Feature","id":4482,"geometry":{"type":"Point","coordinates":[-122.851317,49.185379]},"properties":{"OBJECTID":4482,"FACILITYID":"1002330923","BIKE_RACK_TYPE":"Coat Hanger","ADDRESS":"13428 Old Yale Rd","OPERATING_LOCATION":null,"OWNER":"Parks","CAPACITY":20,"COMMENTS":null}},{"type":"Feature","id":3218,"geometry":{"type":"Point","coordinates":[-122.838979,49.160877]},"properties":{"OBJECTID":3218,"FACILITYID":"1002330865","BIKE_RACK_TYPE":"Schoolyard","ADDRESS":"13750 88 Ave","OPERATING_LOCATION":null,"OWNER":"Parks","CAPACITY":43,"COMMENTS":null}},{"type":"Feature","id":3537,"geometry":{"type":"Point","coordinates":[-122.780544,49.154865]},"properties":{"OBJECTID":3537,"FACILITYID":"1002330900","BIKE_RACK_TYPE":"Coat Hanger","ADDRESS":"15996 84 Ave","OPERATING_LOCATION":null,"OWNER":"Parks","CAPACITY":18,"COMMENTS":null}},{"type":"Feature","id":1937,"geometry":{"type":"Point","coordinates":[-122.842947,49.136749]},"properties":{"OBJECTID":1937,"FACILITYID":"1002328315","BIKE_RACK_TYPE":"Inverted U","ADDRESS":null,"OPERATING_LOCATION":null,"OWNER":"Engineering","CAPACITY":2,"COMMENTS":null}},{"type":"Feature","id":5761,"geometry":{"type":"Point","coordinates":[-122.845016,49.18416]},"properties":{"OBJECTID":5761,"FACILITYID":"1002334571","BIKE_RACK_TYPE":"Inverted U","ADDRESS":null,"OPERATING_LOCATION":null,"OWNER":"Engineering","CAPACITY":4,"COMMENTS":null}},{"type":"Feature","id":661,"geometry":{"type":"Point","coordinates":[-122.780076,49.155577]},"properties":{"OBJECTID":661,"FACILITYID":"1002328317","BIKE_RACK_TYPE":"Inverted U","ADDRESS":"15957 84 Ave","OPERATING_LOCATION":null,"OWNER":"Engineering","CAPACITY":2,"COMMENTS":null}},{"type":"Feature","id":3841,"geometry":{"type":"Point","coordinates":[-122.753639,49.115686]},"properties":{"OBJECTID":3841,"FACILITYID":"1002330897","BIKE_RACK_TYPE":"Coat Hanger","ADDRESS":"Cloverdale Athletic Park","OPERATING_LOCATION":null,"OWNER":"Parks","CAPACITY":12,"COMMENTS":null}},{"type":"Feature","id":4177,"geometry":{"type":"Point","coordinates":[-122.827515,49.066982]},"properties":{"OBJECTID":4177,"FACILITYID":"1002330922","BIKE_RACK_TYPE":"Inverted U","ADDRESS":"14250 Crescent Rd","OPERATING_LOCATION":null,"OWNER":"Parks","CAPACITY":2,"COMMENTS":null}},{"type":"Feature","id":2563,"geometry":{"type":"Point","coordinates":[-122.823458,49.193025]},"properties":{"OBJECTID":2563,"FACILITYID":"1002330911","BIKE_RACK_TYPE":"Inverted U","ADDRESS":null,"OPERATING_LOCATION":"10513 144 st","OWNER":"Parks","CAPACITY":6,"COMMENTS":null}},{"type":"Feature","id":5121,"geometry":{"type":"Point","coordinates":[-122.69944,49.163103]},"properties":{"OBJECTID":5121,"FACILITYID":"1002330861","BIKE_RACK_TYPE":"Coat Hanger","ADDRESS":"18885 88 Ave","OPERATING_LOCATION":null,"OWNER":"Libraries","CAPACITY":6,"COMMENTS":null}},{"type":"Feature","id":3538,"geometry":{"type":"Point","coordinates":[-122.780056,49.155117]},"properties":{"OBJECTID":3538,"FACILITYID":"1002330887","BIKE_RACK_TYPE":"Coat Hanger","ADDRESS":"15996 84 Ave","OPERATING_LOCATION":null,"OWNER":"Parks","CAPACITY":36,"COMMENTS":null}},{"type":"Feature","id":6081,"geometry":{"type":"Point","coordinates":[-122.756728,49.118549]},"properties":{"OBJECTID":6081,"FACILITYID":"1002334570","BIKE_RACK_TYPE":"Inverted U","ADDRESS":null,"OPERATING_LOCATION":null,"OWNER":"Engineering","CAPACITY":8,"COMMENTS":null}},{"type":"Feature","id":3843,"geometry":{"type":"Point","coordinates":[-122.782521,49.147608]},"properties":{"OBJECTID":3843,"FACILITYID":"1002330892","BIKE_RACK_TYPE":"Schoolyard","ADDRESS":"15802 80 Ave","OPERATING_LOCATION":null,"OWNER":"Parks","CAPACITY":37,"COMMENTS":null}},{"type":"Feature","id":3235,"geometry":{"type":"Point","coordinates":[-122.870001,49.136655]},"properties":{"OBJECTID":3235,"FACILITYID":"1002330871","BIKE_RACK_TYPE":"Schoolyard","ADDRESS":"7395 128 St","OPERATING_LOCATION":null,"OWNER":"Parks","CAPACITY":49,"COMMENTS":null}},{"type":"Feature","id":4818,"geometry":{"type":"Point","coordinates":[-122.747441,49.010338]},"properties":{"OBJECTID":4818,"FACILITYID":"1002330883","BIKE_RACK_TYPE":"Coat Hanger","ADDRESS":"457 172 St","OPERATING_LOCATION":null,"OWNER":"Parks","CAPACITY":6,"COMMENTS":null}},{"type":"Feature","id":7379,"geometry":{"type":"Point","coordinates":[-122.761254,49.177868]},"properties":{"OBJECTID":7379,"FACILITYID":"1002340514","BIKE_RACK_TYPE":"Coat Hanger","ADDRESS":"16689 96 Ave","OPERATING_LOCATION":null,"OWNER":"Metro Vancouver","CAPACITY":14,"COMMENTS":null}},{"type":"Feature","id":1281,"geometry":{"type":"Point","coordinates":[-122.887146,49.056676]},"properties":{"OBJECTID":1281,"FACILITYID":"1002328284","BIKE_RACK_TYPE":"Inverted U","ADDRESS":"12101 Sullivan St","OPERATING_LOCATION":null,"OWNER":"Parks","CAPACITY":6,"COMMENTS":null}},{"type":"Feature","id":659,"geometry":{"type":"Point","coordinates":[-122.795558,49.188672]},"properties":{"OBJECTID":659,"FACILITYID":"1002328310","BIKE_RACK_TYPE":"Inverted U","ADDRESS":"15380 102A Ave","OPERATING_LOCATION":null,"OWNER":"Engineering","CAPACITY":2,"COMMENTS":null}},{"type":"Feature","id":962,"geometry":{"type":"Point","coordinates":[-122.799398,49.187813]},"properties":{"OBJECTID":962,"FACILITYID":"1002328305","BIKE_RACK_TYPE":"Inverted U","ADDRESS":"10190 152A St","OPERATING_LOCATION":null,"OWNER":"Engineering","CAPACITY":2,"COMMENTS":null}},{"type":"Feature","id":967,"geometry":{"type":"Point","coordinates":[-122.735089,49.105268]},"properties":{"OBJECTID":967,"FACILITYID":"1002328308","BIKE_RACK_TYPE":"Inverted U","ADDRESS":"5659 176 St","OPERATING_LOCATION":null,"OWNER":"Engineering","CAPACITY":2,"COMMENTS":null}},{"type":"Feature","id":2242,"geometry":{"type":"Point","coordinates":[-122.885066,49.052064]},"properties":{"OBJECTID":2242,"FACILITYID":"1002328285","BIKE_RACK_TYPE":"Inverted U","ADDRESS":null,"OPERATING_LOCATION":null,"OWNER":"Parks","CAPACITY":4,"COMMENTS":null}},{"type":"Feature","id":1604,"geometry":{"type":"Point","coordinates":[-122.801048,49.033462]},"properties":{"OBJECTID":1604,"FACILITYID":"1002328293","BIKE_RACK_TYPE":"Inverted U","ADDRESS":"1740 152 St","OPERATING_LOCATION":null,"OWNER":"Engineering","CAPACITY":4,"COMMENTS":null}},{"type":"Feature","id":2562,"geometry":{"type":"Point","coordinates":[-122.777681,49.195211]},"properties":{"OBJECTID":2562,"FACILITYID":"1002330907","BIKE_RACK_TYPE":"Spiral","ADDRESS":"10588 160 St","OPERATING_LOCATION":null,"OWNER":"Parks","CAPACITY":6,"COMMENTS":null}},{"type":"Feature","id":1922,"geometry":{"type":"Point","coordinates":[-122.735117,49.104619]},"properties":{"OBJECTID":1922,"FACILITYID":"1002328320","BIKE_RACK_TYPE":"Inverted U","ADDRESS":null,"OPERATING_LOCATION":null,"OWNER":"Engineering","CAPACITY":2,"COMMENTS":null}},{"type":"Feature","id":1603,"geometry":{"type":"Point","coordinates":[-122.800968,49.03508]},"properties":{"OBJECTID":1603,"FACILITYID":"1002328291","BIKE_RACK_TYPE":"Inverted U","ADDRESS":"1812 152 St","OPERATING_LOCATION":null,"OWNER":"Engineering","CAPACITY":2,"COMMENTS":null}},{"type":"Feature","id":963,"geometry":{"type":"Point","coordinates":[-122.809736,49.191352]},"properties":{"OBJECTID":963,"FACILITYID":"1002328303","BIKE_RACK_TYPE":"Inverted U","ADDRESS":"14888 104 Ave","OPERATING_LOCATION":null,"OWNER":"Engineering","CAPACITY":2,"COMMENTS":null}},{"type":"Feature","id":6419,"geometry":{"type":"Point","coordinates":[-122.848083,49.188838]},"properties":{"OBJECTID":6419,"FACILITYID":"1002334561","BIKE_RACK_TYPE":"Coat Hanger","ADDRESS":"10275 City Pkwy","OPERATING_LOCATION":null,"OWNER":"TransLink","CAPACITY":4,"COMMENTS":null}},{"type":"Feature","id":658,"geometry":{"type":"Point","coordinates":[-122.800731,49.187236]},"properties":{"OBJECTID":658,"FACILITYID":"1002328298","BIKE_RACK_TYPE":"Inverted U","ADDRESS":"10174 152 St","OPERATING_LOCATION":null,"OWNER":"Engineering","CAPACITY":2,"COMMENTS":null}},{"type":"Feature","id":2258,"geometry":{"type":"Point","coordinates":[-122.88599,49.057325]},"properties":{"OBJECTID":2258,"FACILITYID":"1002328282","BIKE_RACK_TYPE":"Schoolyard","ADDRESS":null,"OPERATING_LOCATION":null,"OWNER":"Parks","CAPACITY":30,"COMMENTS":null}},{"type":"Feature","id":7393,"geometry":{"type":"Point","coordinates":[-122.761254,49.177868]},"properties":{"OBJECTID":7393,"FACILITYID":"1002340515","BIKE_RACK_TYPE":"Coat Hanger","ADDRESS":"16689 96 Ave","OPERATING_LOCATION":null,"OWNER":"Metro Vancouver","CAPACITY":14,"COMMENTS":null}},{"type":"Feature","id":3233,"geometry":{"type":"Point","coordinates":[-122.840491,49.159147]},"properties":{"OBJECTID":3233,"FACILITYID":"1002330864","BIKE_RACK_TYPE":"Inverted U","ADDRESS":"13750 88 Ave","OPERATING_LOCATION":null,"OWNER":"Parks","CAPACITY":2,"COMMENTS":null}},{"type":"Feature","id":7380,"geometry":{"type":"Point","coordinates":[-122.778984,49.159149]},"properties":{"OBJECTID":7380,"FACILITYID":"1002340516","BIKE_RACK_TYPE":"Inverted U","ADDRESS":"86 Ave and 160 St","OPERATING_LOCATION":null,"OWNER":"Engineering","CAPACITY":2,"COMMENTS":null}},{"type":"Feature","id":4161,"geometry":{"type":"Point","coordinates":[-122.842268,49.064914]},"properties":{"OBJECTID":4161,"FACILITYID":"1002330919","BIKE_RACK_TYPE":"Coat Hanger","ADDRESS":"13723 Crescent Rd","OPERATING_LOCATION":null,"OWNER":"Parks","CAPACITY":6,"COMMENTS":null}},{"type":"Feature","id":1602,"geometry":{"type":"Point","coordinates":[-122.801474,49.036667]},"properties":{"OBJECTID":1602,"FACILITYID":"1002328290","BIKE_RACK_TYPE":"Inverted U","ADDRESS":"152 St and 19 Ave","OPERATING_LOCATION":null,"OWNER":"Engineering","CAPACITY":2,"COMMENTS":"Add photo"}},{"type":"Feature","id":2884,"geometry":{"type":"Point","coordinates":[-122.849105,49.197212]},"properties":{"OBJECTID":2884,"FACILITYID":"1002330910","BIKE_RACK_TYPE":"Spiral","ADDRESS":"13458 107A Ave","OPERATING_LOCATION":null,"OWNER":"Parks","CAPACITY":6,"COMMENTS":null}},{"type":"Feature","id":7378,"geometry":{"type":"Point","coordinates":[-122.745453,49.177615]},"properties":{"OBJECTID":7378,"FACILITYID":"1002340517","BIKE_RACK_TYPE":"Coat Hanger","ADDRESS":"96 Ave and 172 St","OPERATING_LOCATION":null,"OWNER":"Metro Vancouver","CAPACITY":14,"COMMENTS":null}},{"type":"Feature","id":3240,"geometry":{"type":"Point","coordinates":[-122.849595,49.190568]},"properties":{"OBJECTID":3240,"FACILITYID":"1002330880","BIKE_RACK_TYPE":"Inverted U","ADDRESS":"10350 University Dr","OPERATING_LOCATION":null,"OWNER":"Libraries","CAPACITY":24,"COMMENTS":null}},{"type":"Feature","id":7377,"geometry":{"type":"Point","coordinates":[-122.728987,49.194538]},"properties":{"OBJECTID":7377,"FACILITYID":"1002340518","BIKE_RACK_TYPE":"Inverted U","ADDRESS":"17775 104 Ave","OPERATING_LOCATION":null,"OWNER":"Metro Vancouver","CAPACITY":4,"COMMENTS":null}},{"type":"Feature","id":3524,"geometry":{"type":"Point","coordinates":[-122.711815,49.11573]},"properties":{"OBJECTID":3524,"FACILITYID":"1002330889","BIKE_RACK_TYPE":"Coat Hanger","ADDRESS":"Don Christian Recreation","OPERATING_LOCATION":null,"OWNER":"Parks","CAPACITY":14,"COMMENTS":null}},{"type":"Feature","id":1297,"geometry":{"type":"Point","coordinates":[-122.801492,49.037259]},"properties":{"OBJECTID":1297,"FACILITYID":"1002328287","BIKE_RACK_TYPE":"Inverted U","ADDRESS":"1959 152 St","OPERATING_LOCATION":null,"OWNER":"Engineering","CAPACITY":4,"COMMENTS":null}},{"type":"Feature","id":4803,"geometry":{"type":"Point","coordinates":[-122.801377,49.035172]},"properties":{"OBJECTID":4803,"FACILITYID":"1002330882","BIKE_RACK_TYPE":"Wave","ADDRESS":"1815 152 St","OPERATING_LOCATION":null,"OWNER":"Libraries","CAPACITY":10,"COMMENTS":null}},{"type":"Feature","id":1298,"geometry":{"type":"Point","coordinates":[-122.80097,49.034428]},"properties":{"OBJECTID":1298,"FACILITYID":"1002328292","BIKE_RACK_TYPE":"Inverted U","ADDRESS":"1790 152 St","OPERATING_LOCATION":null,"OWNER":"Engineering","CAPACITY":2,"COMMENTS":null}},{"type":"Feature","id":7363,"geometry":{"type":"Point","coordinates":[-122.797365,49.16548]},"properties":{"OBJECTID":7363,"FACILITYID":"1002340519","BIKE_RACK_TYPE":"Inverted U","ADDRESS":"15355 Fraser Hwy","OPERATING_LOCATION":null,"OWNER":"Engineering","CAPACITY":2,"COMMENTS":null}},{"type":"Feature","id":7681,"geometry":{"type":"Point","coordinates":[-122.763763,49.152822]},"properties":{"OBJECTID":7681,"FACILITYID":"1002340520","BIKE_RACK_TYPE":"Coat Hanger","ADDRESS":"16555 Fraser Hwy","OPERATING_LOCATION":null,"OWNER":"Parks","CAPACITY":26,"COMMENTS":null}},{"type":"Feature","id":4805,"geometry":{"type":"Point","coordinates":[-122.78074,49.051174]},"properties":{"OBJECTID":4805,"FACILITYID":"1002330885","BIKE_RACK_TYPE":"Inverted U","ADDRESS":"15958 28 Ave","OPERATING_LOCATION":null,"OWNER":"Parks","CAPACITY":4,"COMMENTS":null}},{"type":"Feature","id":1601,"geometry":{"type":"Point","coordinates":[-122.801032,49.038069]},"properties":{"OBJECTID":1601,"FACILITYID":"1002328289","BIKE_RACK_TYPE":"Inverted U","ADDRESS":"1990 152 St","OPERATING_LOCATION":null,"OWNER":"Engineering","CAPACITY":2,"COMMENTS":null}},{"type":"Feature","id":5473,"geometry":{"type":"Point","coordinates":[-122.789625,49.192025]},"properties":{"OBJECTID":5473,"FACILITYID":"1002330901","BIKE_RACK_TYPE":"Inverted U","ADDRESS":"10447 156 St","OPERATING_LOCATION":null,"OWNER":"Engineering","CAPACITY":4,"COMMENTS":null}},{"type":"Feature","id":662,"geometry":{"type":"Point","coordinates":[-122.842693,49.134363]},"properties":{"OBJECTID":662,"FACILITYID":"1002328319","BIKE_RACK_TYPE":"Inverted U","ADDRESS":"7238 137 St","OPERATING_LOCATION":null,"OWNER":"Engineering","CAPACITY":2,"COMMENTS":"Need pic"}},{"type":"Feature","id":1299,"geometry":{"type":"Point","coordinates":[-122.800922,49.032881]},"properties":{"OBJECTID":1299,"FACILITYID":"1002328294","BIKE_RACK_TYPE":"Inverted U","ADDRESS":"1688 152 St","OPERATING_LOCATION":null,"OWNER":"Engineering","CAPACITY":4,"COMMENTS":null}},{"type":"Feature","id":2561,"geometry":{"type":"Point","coordinates":[-122.871181,49.201734]},"properties":{"OBJECTID":2561,"FACILITYID":"1002330914","BIKE_RACK_TYPE":"Inverted U","ADDRESS":"10950 126A St","OPERATING_LOCATION":null,"OWNER":"Parks","CAPACITY":14,"COMMENTS":null}},{"type":"Feature","id":1953,"geometry":{"type":"Point","coordinates":[-122.735088,49.105726]},"properties":{"OBJECTID":1953,"FACILITYID":"1002328312","BIKE_RACK_TYPE":"Inverted U","ADDRESS":null,"OPERATING_LOCATION":null,"OWNER":"Engineering","CAPACITY":2,"COMMENTS":null}},{"type":"Feature","id":4801,"geometry":{"type":"Point","coordinates":[-122.866434,49.03263]},"properties":{"OBJECTID":4801,"FACILITYID":"1002330881","BIKE_RACK_TYPE":"Coat Hanger","ADDRESS":"12854 17 Ave","OPERATING_LOCATION":null,"OWNER":"Libraries","CAPACITY":8,"COMMENTS":null}},{"type":"Feature","id":3239,"geometry":{"type":"Point","coordinates":[-122.849639,49.190659]},"properties":{"OBJECTID":3239,"FACILITYID":"1002330879","BIKE_RACK_TYPE":"Inverted U","ADDRESS":"10350 University Dr","OPERATING_LOCATION":null,"OWNER":"Libraries","CAPACITY":6,"COMMENTS":null}},{"type":"Feature","id":7361,"geometry":{"type":"Point","coordinates":[-122.728219,49.194113]},"properties":{"OBJECTID":7361,"FACILITYID":"1002340521","BIKE_RACK_TYPE":"Inverted U","ADDRESS":"17775 104 Ave","OPERATING_LOCATION":null,"OWNER":"Metro Vancouver","CAPACITY":16,"COMMENTS":null}},{"type":"Feature","id":5777,"geometry":{"type":"Point","coordinates":[-122.843829,49.184154]},"properties":{"OBJECTID":5777,"FACILITYID":"1002334572","BIKE_RACK_TYPE":"Inverted U","ADDRESS":null,"OPERATING_LOCATION":null,"OWNER":"Engineering","CAPACITY":4,"COMMENTS":null}},{"type":"Feature","id":660,"geometry":{"type":"Point","coordinates":[-122.79941,49.187442]},"properties":{"OBJECTID":660,"FACILITYID":"1002328307","BIKE_RACK_TYPE":"Inverted U","ADDRESS":"10172 152A St","OPERATING_LOCATION":null,"OWNER":"Engineering","CAPACITY":2,"COMMENTS":null}},{"type":"Feature","id":3540,"geometry":{"type":"Point","coordinates":[-122.733491,49.115464]},"properties":{"OBJECTID":3540,"FACILITYID":"1002330893","BIKE_RACK_TYPE":"Inverted U","ADDRESS":"6090 176 St","OPERATING_LOCATION":null,"OWNER":"Parks","CAPACITY":4,"COMMENTS":null}},{"type":"Feature","id":2241,"geometry":{"type":"Point","coordinates":[-122.881522,49.058949]},"properties":{"OBJECTID":2241,"FACILITYID":"1002328283","BIKE_RACK_TYPE":"Coat Hanger","ADDRESS":null,"OPERATING_LOCATION":"Crescent Beach","OWNER":"Parks","CAPACITY":18,"COMMENTS":null}},{"type":"Feature","id":4193,"geometry":{"type":"Point","coordinates":[-122.815916,49.040511]},"properties":{"OBJECTID":4193,"FACILITYID":"1002330921","BIKE_RACK_TYPE":"Inverted U","ADDRESS":"2199 148 St","OPERATING_LOCATION":null,"OWNER":"Parks","CAPACITY":6,"COMMENTS":null}},{"type":"Feature","id":3521,"geometry":{"type":"Point","coordinates":[-122.76743,49.166664]},"properties":{"OBJECTID":3521,"FACILITYID":"1002330891","BIKE_RACK_TYPE":"Inverted U","ADDRESS":"9016 164 St","OPERATING_LOCATION":null,"OWNER":"Parks","CAPACITY":4,"COMMENTS":null}},{"type":"Feature","id":7362,"geometry":{"type":"Point","coordinates":[-122.780439,49.155525]},"properties":{"OBJECTID":7362,"FACILITYID":"1002340522","BIKE_RACK_TYPE":"Inverted U","ADDRESS":"15957 84 Ave","OPERATING_LOCATION":null,"OWNER":"Engineering","CAPACITY":2,"COMMENTS":null}},{"type":"Feature","id":964,"geometry":{"type":"Point","coordinates":[-122.778978,49.155297]},"properties":{"OBJECTID":964,"FACILITYID":"1002328321","BIKE_RACK_TYPE":"Inverted U","ADDRESS":"15996 84 Ave","OPERATING_LOCATION":null,"OWNER":"Engineering","CAPACITY":2,"COMMENTS":null}},{"type":"Feature","id":965,"geometry":{"type":"Point","coordinates":[-122.842946,49.137063]},"properties":{"OBJECTID":965,"FACILITYID":"1002328325","BIKE_RACK_TYPE":"Inverted U","ADDRESS":"7380 King George Blvd","OPERATING_LOCATION":null,"OWNER":"Engineering","CAPACITY":2,"COMMENTS":null}},{"type":"Feature","id":2565,"geometry":{"type":"Point","coordinates":[-122.849688,49.196906]},"properties":{"OBJECTID":2565,"FACILITYID":"1002330916","BIKE_RACK_TYPE":"Spiral","ADDRESS":"13458 107A Ave","OPERATING_LOCATION":null,"OWNER":"Parks","CAPACITY":6,"COMMENTS":null}},{"type":"Feature","id":6422,"geometry":{"type":"Point","coordinates":[-122.844616,49.183094]},"properties":{"OBJECTID":6422,"FACILITYID":"1002334564","BIKE_RACK_TYPE":"Coat Hanger","ADDRESS":"9908 King George Blvd","OPERATING_LOCATION":null,"OWNER":"TransLink","CAPACITY":8,"COMMENTS":null}},{"type":"Feature","id":7365,"geometry":{"type":"Point","coordinates":[-122.801859,49.193264]},"properties":{"OBJECTID":7365,"FACILITYID":"1002340523","BIKE_RACK_TYPE":"Inverted U","ADDRESS":"15105 105 Ave","OPERATING_LOCATION":null,"OWNER":"TransLink","CAPACITY":4,"COMMENTS":null}},{"type":"Feature","id":961,"geometry":{"type":"Point","coordinates":[-122.795732,49.191633]},"properties":{"OBJECTID":961,"FACILITYID":"1002328309","BIKE_RACK_TYPE":"Inverted U","ADDRESS":"15387 104 Ave","OPERATING_LOCATION":null,"OWNER":"Engineering","CAPACITY":2,"COMMENTS":null}},{"type":"Feature","id":3202,"geometry":{"type":"Point","coordinates":[-122.870292,49.138522]},"properties":{"OBJECTID":3202,"FACILITYID":"1002330869","BIKE_RACK_TYPE":"Coat Hanger","ADDRESS":"7395 128 St","OPERATING_LOCATION":null,"OWNER":"Parks","CAPACITY":14,"COMMENTS":null}},{"type":"Feature","id":3237,"geometry":{"type":"Point","coordinates":[-122.841988,49.132562]},"properties":{"OBJECTID":3237,"FACILITYID":"1002330877","BIKE_RACK_TYPE":"Inverted U","ADDRESS":"13730 72 Ave","OPERATING_LOCATION":null,"OWNER":"Parks","CAPACITY":18,"COMMENTS":null}},{"type":"Feature","id":5441,"geometry":{"type":"Point","coordinates":[-122.733421,49.104824]},"properties":{"OBJECTID":5441,"FACILITYID":"1002330903","BIKE_RACK_TYPE":"Coat Hanger","ADDRESS":"5642 176A St","OPERATING_LOCATION":null,"OWNER":"Libraries","CAPACITY":12,"COMMENTS":null}},{"type":"Feature","id":651,"geometry":{"type":"Point","coordinates":[-122.735068,49.105859]},"properties":{"OBJECTID":651,"FACILITYID":"1002328324","BIKE_RACK_TYPE":"Inverted U","ADDRESS":"5699 176 St","OPERATING_LOCATION":null,"OWNER":"Engineering","CAPACITY":2,"COMMENTS":null}},{"type":"Feature","id":3206,"geometry":{"type":"Point","coordinates":[-122.849561,49.191005]},"properties":{"OBJECTID":3206,"FACILITYID":"1002330878","BIKE_RACK_TYPE":"Inverted U","ADDRESS":"10350 University Dr","OPERATING_LOCATION":null,"OWNER":"Libraries","CAPACITY":32,"COMMENTS":null}},{"type":"Feature","id":5458,"geometry":{"type":"Point","coordinates":[-122.824586,49.192445]},"properties":{"OBJECTID":5458,"FACILITYID":"1002330902","BIKE_RACK_TYPE":"Inverted U","ADDRESS":null,"OPERATING_LOCATION":null,"OWNER":"Engineering","CAPACITY":2,"COMMENTS":null}},{"type":"Feature","id":7381,"geometry":{"type":"Point","coordinates":[-122.779109,49.158981]},"properties":{"OBJECTID":7381,"FACILITYID":"1002340524","BIKE_RACK_TYPE":"Inverted U","ADDRESS":"86 Ave and 160 St","OPERATING_LOCATION":null,"OWNER":"Engineering","CAPACITY":2,"COMMENTS":null}},{"type":"Feature","id":2257,"geometry":{"type":"Point","coordinates":[-122.883075,49.0592]},"properties":{"OBJECTID":2257,"FACILITYID":"1002328286","BIKE_RACK_TYPE":"Inverted U","ADDRESS":null,"OPERATING_LOCATION":null,"OWNER":"Parks","CAPACITY":6,"COMMENTS":null}},{"type":"Feature","id":3204,"geometry":{"type":"Point","coordinates":[-122.853961,49.126785]},"properties":{"OBJECTID":3204,"FACILITYID":"1002330873","BIKE_RACK_TYPE":"Coat Hanger","ADDRESS":"13355 68 Ave","OPERATING_LOCATION":null,"OWNER":"Parks","CAPACITY":12,"COMMENTS":null}},{"type":"Feature","id":6721,"geometry":{"type":"Point","coordinates":[-122.850799,49.199005]},"properties":{"OBJECTID":6721,"FACILITYID":"1002334562","BIKE_RACK_TYPE":"Coat Hanger","ADDRESS":"13401 108 Ave","OPERATING_LOCATION":null,"OWNER":"TransLink","CAPACITY":4,"COMMENTS":null}},{"type":"Feature","id":4481,"geometry":{"type":"Point","coordinates":[-122.851247,49.185139]},"properties":{"OBJECTID":4481,"FACILITYID":"1002330924","BIKE_RACK_TYPE":"Coat Hanger","ADDRESS":"13428 old yale rd","OPERATING_LOCATION":null,"OWNER":"Parks","CAPACITY":6,"COMMENTS":null}},{"type":"Feature","id":3541,"geometry":{"type":"Point","coordinates":[-122.733348,49.113357]},"properties":{"OBJECTID":3541,"FACILITYID":"1002330894","BIKE_RACK_TYPE":"Coat Hanger","ADDRESS":"6090 176 St","OPERATING_LOCATION":null,"OWNER":"Parks","CAPACITY":12,"COMMENTS":null}},{"type":"Feature","id":4162,"geometry":{"type":"Point","coordinates":[-122.818329,49.040033]},"properties":{"OBJECTID":4162,"FACILITYID":"1002330920","BIKE_RACK_TYPE":"Spiral","ADDRESS":"14601 20 Ave","OPERATING_LOCATION":null,"OWNER":"Parks","CAPACITY":18,"COMMENTS":null}},{"type":"Feature","id":6420,"geometry":{"type":"Point","coordinates":[-122.847848,49.189638]},"properties":{"OBJECTID":6420,"FACILITYID":"1002334565","BIKE_RACK_TYPE":"Inverted U","ADDRESS":"10285 City Pkwy","OPERATING_LOCATION":null,"OWNER":"TransLink","CAPACITY":10,"COMMENTS":null}},{"type":"Feature","id":3217,"geometry":{"type":"Point","coordinates":[-122.841225,49.160467]},"properties":{"OBJECTID":3217,"FACILITYID":"1002330863","BIKE_RACK_TYPE":"Coat Hanger","ADDRESS":"13750 88 Ave","OPERATING_LOCATION":null,"OWNER":"Parks","CAPACITY":18,"COMMENTS":null}},{"type":"Feature","id":966,"geometry":{"type":"Point","coordinates":[-122.842658,49.134169]},"properties":{"OBJECTID":966,"FACILITYID":"1002328326","BIKE_RACK_TYPE":"Inverted U","ADDRESS":"13711 137 St","OPERATING_LOCATION":null,"OWNER":"Engineering","CAPACITY":2,"COMMENTS":null}},{"type":"Feature","id":4194,"geometry":{"type":"Point","coordinates":[-122.815803,49.033145]},"properties":{"OBJECTID":4194,"FACILITYID":"1002330918","BIKE_RACK_TYPE":"Coat Hanger","ADDRESS":"14655 17 Ave","OPERATING_LOCATION":null,"OWNER":"Parks","CAPACITY":14,"COMMENTS":null}},{"type":"Feature","id":6722,"geometry":{"type":"Point","coordinates":[-122.843893,49.182618]},"properties":{"OBJECTID":6722,"FACILITYID":"1002334560","BIKE_RACK_TYPE":"Coat Hanger","ADDRESS":"9908 King George Blvd","OPERATING_LOCATION":null,"OWNER":"TransLink","CAPACITY":8,"COMMENTS":null}},{"type":"Feature","id":3236,"geometry":{"type":"Point","coordinates":[-122.840641,49.13041]},"properties":{"OBJECTID":3236,"FACILITYID":"1002330875","BIKE_RACK_TYPE":"Coat Hanger","ADDRESS":"13795 70 Ave","OPERATING_LOCATION":null,"OWNER":"Libraries","CAPACITY":4,"COMMENTS":null}},{"type":"Feature","id":665,"geometry":{"type":"Point","coordinates":[-122.734872,49.105858]},"properties":{"OBJECTID":665,"FACILITYID":"1002328322","BIKE_RACK_TYPE":"Inverted U","ADDRESS":"5696 176 St","OPERATING_LOCATION":null,"OWNER":"Engineering","CAPACITY":2,"COMMENTS":null}},{"type":"Feature","id":666,"geometry":{"type":"Point","coordinates":[-122.734861,49.105199]},"properties":{"OBJECTID":666,"FACILITYID":"1002328327","BIKE_RACK_TYPE":"Inverted U","ADDRESS":"5658 176 St","OPERATING_LOCATION":null,"OWNER":"Engineering","CAPACITY":2,"COMMENTS":null}},{"type":"Feature","id":6401,"geometry":{"type":"Point","coordinates":[-122.873774,49.204395]},"properties":{"OBJECTID":6401,"FACILITYID":"1002334563","BIKE_RACK_TYPE":"Coat Hanger","ADDRESS":"12515 110 Ave","OPERATING_LOCATION":null,"OWNER":"TransLink","CAPACITY":4,"COMMENTS":null}},{"type":"Feature","id":3221,"geometry":{"type":"Point","coordinates":[-122.869727,49.137568]},"properties":{"OBJECTID":3221,"FACILITYID":"1002330870","BIKE_RACK_TYPE":"Spiral","ADDRESS":"7395 128 St","OPERATING_LOCATION":null,"OWNER":"Parks","CAPACITY":6,"COMMENTS":null}},{"type":"Feature","id":3203,"geometry":{"type":"Point","coordinates":[-122.884963,49.137321]},"properties":{"OBJECTID":3203,"FACILITYID":"1002330872","BIKE_RACK_TYPE":"Coat Hanger","ADDRESS":"7399 122 St","OPERATING_LOCATION":null,"OWNER":"Libraries","CAPACITY":8,"COMMENTS":null}},{"type":"Feature","id":3522,"geometry":{"type":"Point","coordinates":[-122.70891,49.130901]},"properties":{"OBJECTID":3522,"FACILITYID":"1002330899","BIKE_RACK_TYPE":"Coat Hanger","ADDRESS":"18513 70 Ave","OPERATING_LOCATION":null,"OWNER":"Parks","CAPACITY":18,"COMMENTS":null}},{"type":"Feature","id":6418,"geometry":{"type":"Point","coordinates":[-122.875164,49.204152]},"properties":{"OBJECTID":6418,"FACILITYID":"1002334566","BIKE_RACK_TYPE":"Coat Hanger","ADDRESS":"11104 Scott Rd","OPERATING_LOCATION":null,"OWNER":"TransLink","CAPACITY":8,"COMMENTS":null}},{"type":"Feature","id":5474,"geometry":{"type":"Point","coordinates":[-122.789142,49.195353]},"properties":{"OBJECTID":5474,"FACILITYID":"1002330904","BIKE_RACK_TYPE":"Inverted U","ADDRESS":null,"OPERATING_LOCATION":null,"OWNER":"Engineering","CAPACITY":4,"COMMENTS":null}},{"type":"Feature","id":3201,"geometry":{"type":"Point","coordinates":[-122.842504,49.161542]},"properties":{"OBJECTID":3201,"FACILITYID":"1002330862","BIKE_RACK_TYPE":"Coat Hanger","ADDRESS":"13750 88 Ave","OPERATING_LOCATION":null,"OWNER":"Parks","CAPACITY":28,"COMMENTS":null}},{"type":"Feature","id":3238,"geometry":{"type":"Point","coordinates":[-122.84168,49.132234]},"properties":{"OBJECTID":3238,"FACILITYID":"1002330876","BIKE_RACK_TYPE":"Inverted U","ADDRESS":"13730 72 Ave","OPERATING_LOCATION":null,"OWNER":"Parks","CAPACITY":4,"COMMENTS":null}},{"type":"Feature","id":2881,"geometry":{"type":"Point","coordinates":[-122.77778,49.19501]},"properties":{"OBJECTID":2881,"FACILITYID":"1002330915","BIKE_RACK_TYPE":"Coat Hanger","ADDRESS":"10588 160 St","OPERATING_LOCATION":null,"OWNER":"Parks","CAPACITY":6,"COMMENTS":null}},{"type":"Feature","id":3205,"geometry":{"type":"Point","coordinates":[-122.839889,49.130544]},"properties":{"OBJECTID":3205,"FACILITYID":"1002330874","BIKE_RACK_TYPE":"Coat Hanger","ADDRESS":"13795 70 Ave","OPERATING_LOCATION":null,"OWNER":"Libraries","CAPACITY":18,"COMMENTS":null}},{"type":"Feature","id":3542,"geometry":{"type":"Point","coordinates":[-122.732461,49.104959]},"properties":{"OBJECTID":3542,"FACILITYID":"1002330898","BIKE_RACK_TYPE":"Inverted U","ADDRESS":"17710 56A Ave","OPERATING_LOCATION":null,"OWNER":"Parks","CAPACITY":12,"COMMENTS":null}},{"type":"Feature","id":2577,"geometry":{"type":"Point","coordinates":[-122.871356,49.211254]},"properties":{"OBJECTID":2577,"FACILITYID":"1002330912","BIKE_RACK_TYPE":"Coat Hanger","ADDRESS":"12560 150 Ave","OPERATING_LOCATION":null,"OWNER":"Parks","CAPACITY":14,"COMMENTS":null}},{"type":"Feature","id":2882,"geometry":{"type":"Point","coordinates":[-122.801818,49.194116]},"properties":{"OBJECTID":2882,"FACILITYID":"1002330906","BIKE_RACK_TYPE":"Inverted U","ADDRESS":"15105 105 Ave","OPERATING_LOCATION":null,"OWNER":"Parks","CAPACITY":10,"COMMENTS":null}},{"type":"Feature","id":2578,"geometry":{"type":"Point","coordinates":[-122.777628,49.195219]},"properties":{"OBJECTID":2578,"FACILITYID":"1002330908","BIKE_RACK_TYPE":"Spiral","ADDRESS":"10588 160 St","OPERATING_LOCATION":null,"OWNER":"Parks","CAPACITY":6,"COMMENTS":null}},{"type":"Feature","id":1921,"geometry":{"type":"Point","coordinates":[-122.842923,49.135333]},"properties":{"OBJECTID":1921,"FACILITYID":"1002328318","BIKE_RACK_TYPE":"Inverted U","ADDRESS":null,"OPERATING_LOCATION":null,"OWNER":"Engineering","CAPACITY":2,"COMMENTS":null}},{"type":"Feature","id":663,"geometry":{"type":"Point","coordinates":[-122.842932,49.134319]},"properties":{"OBJECTID":663,"FACILITYID":"1002328302","BIKE_RACK_TYPE":"Inverted U","ADDRESS":"7235 137 St","OPERATING_LOCATION":null,"OWNER":"Engineering","CAPACITY":2,"COMMENTS":null}},{"type":"Feature","id":3539,"geometry":{"type":"Point","coordinates":[-122.704718,49.132557]},"properties":{"OBJECTID":3539,"FACILITYID":"1002330888","BIKE_RACK_TYPE":"Wave","ADDRESS":"7155 187A St","OPERATING_LOCATION":null,"OWNER":"Parks","CAPACITY":10,"COMMENTS":null}},{"type":"Feature","id":4804,"geometry":{"type":"Point","coordinates":[-122.753813,49.0315]},"properties":{"OBJECTID":4804,"FACILITYID":"1002330884","BIKE_RACK_TYPE":"Post and Ring","ADDRESS":"16 Ave and 170 St","OPERATING_LOCATION":null,"OWNER":"Parks","CAPACITY":6,"COMMENTS":null}},{"type":"Feature","id":6402,"geometry":{"type":"Point","coordinates":[-122.849068,49.188849]},"properties":{"OBJECTID":6402,"FACILITYID":"1002334569","BIKE_RACK_TYPE":"Locker","ADDRESS":"10275 City Pkwy","OPERATING_LOCATION":null,"OWNER":"TransLink","CAPACITY":6,"COMMENTS":null}},{"type":"Feature","id":8002,"geometry":{"type":"Point","coordinates":[-122.822369,49.071843]},"properties":{"OBJECTID":8002,"FACILITYID":"1002336171","BIKE_RACK_TYPE":"Locker","ADDRESS":"South Surrey Park & Ride","OPERATING_LOCATION":null,"OWNER":"TransLink","CAPACITY":8,"COMMENTS":null}},{"type":"Feature","id":6417,"geometry":{"type":"Point","coordinates":[-122.875483,49.204561]},"properties":{"OBJECTID":6417,"FACILITYID":"1002334568","BIKE_RACK_TYPE":"Locker","ADDRESS":"11104 Scott Rd","OPERATING_LOCATION":null,"OWNER":"TransLink","CAPACITY":8,"COMMENTS":null}},{"type":"Feature","id":3219,"geometry":{"type":"Point","coordinates":[-122.840459,49.160637]},"properties":{"OBJECTID":3219,"FACILITYID":"1002330866","BIKE_RACK_TYPE":"Post and Ring","ADDRESS":"13750 88 Ave","OPERATING_LOCATION":null,"OWNER":"Parks","CAPACITY":2,"COMMENTS":null}},{"type":"Feature","id":3234,"geometry":{"type":"Point","coordinates":[-122.840411,49.159328]},"properties":{"OBJECTID":3234,"FACILITYID":"1002330868","BIKE_RACK_TYPE":"Post and Ring","ADDRESS":"13750 88 Ave","OPERATING_LOCATION":null,"OWNER":"Parks","CAPACITY":2,"COMMENTS":null}},{"type":"Feature","id":6421,"geometry":{"type":"Point","coordinates":[-122.843884,49.182768]},"properties":{"OBJECTID":6421,"FACILITYID":"1002334567","BIKE_RACK_TYPE":"Bike Parkade","ADDRESS":"9908 King George Blvd","OPERATING_LOCATION":null,"OWNER":"TransLink","CAPACITY":72,"COMMENTS":null}},{"type":"Feature","id":3220,"geometry":{"type":"Point","coordinates":[-122.839896,49.160345]},"properties":{"OBJECTID":3220,"FACILITYID":"1002330867","BIKE_RACK_TYPE":"Post and Ring","ADDRESS":"13750 88 Ave","OPERATING_LOCATION":null,"OWNER":"Parks","CAPACITY":2,"COMMENTS":null}},{"type":"Feature","id":3543,"geometry":{"type":"Point","coordinates":[-122.784163,49.147966]},"properties":{"OBJECTID":3543,"FACILITYID":"1002330890","BIKE_RACK_TYPE":"Post and Ring","ADDRESS":"15802 80 Ave","OPERATING_LOCATION":null,"OWNER":"Parks","CAPACITY":4,"COMMENTS":null}},{"type":"Feature","id":650,"geometry":{"type":"Point","coordinates":[-122.734864,49.106855]},"properties":{"OBJECTID":650,"FACILITYID":"1002328301","BIKE_RACK_TYPE":"Inverted U","ADDRESS":"5750 176 St","OPERATING_LOCATION":null,"OWNER":"Engineering","CAPACITY":2,"COMMENTS":null}},{"type":"Feature","id":645,"geometry":{"type":"Point","coordinates":[-122.779329,49.155375]},"properties":{"OBJECTID":645,"FACILITYID":"1002328311","BIKE_RACK_TYPE":"Inverted U","ADDRESS":"15996 84 Ave","OPERATING_LOCATION":null,"OWNER":"Engineering","CAPACITY":4,"COMMENTS":null}},{"type":"Feature","id":646,"geometry":{"type":"Point","coordinates":[-122.776174,49.155369]},"properties":{"OBJECTID":646,"FACILITYID":"1002328306","BIKE_RACK_TYPE":"Inverted U","ADDRESS":"16088 84 Ave","OPERATING_LOCATION":null,"OWNER":"Engineering","CAPACITY":2,"COMMENTS":null}},{"type":"Feature","id":641,"geometry":{"type":"Point","coordinates":[-122.800737,49.189056]},"properties":{"OBJECTID":641,"FACILITYID":"1002328299","BIKE_RACK_TYPE":"Inverted U","ADDRESS":"10250 152 St","OPERATING_LOCATION":null,"OWNER":"Engineering","CAPACITY":2,"COMMENTS":null}},{"type":"Feature","id":643,"geometry":{"type":"Point","coordinates":[-122.781045,49.158395]},"properties":{"OBJECTID":643,"FACILITYID":"1002328304","BIKE_RACK_TYPE":"Inverted U","ADDRESS":"15925 Fraser Hwy","OPERATING_LOCATION":null,"OWNER":"Engineering","CAPACITY":2,"COMMENTS":null}},{"type":"Feature","id":644,"geometry":{"type":"Point","coordinates":[-122.780786,49.158296]},"properties":{"OBJECTID":644,"FACILITYID":"1002328314","BIKE_RACK_TYPE":"Inverted U","ADDRESS":"15941 Fraser Hwy","OPERATING_LOCATION":null,"OWNER":"Engineering","CAPACITY":4,"COMMENTS":null}},{"type":"Feature","id":2883,"geometry":{"type":"Point","coordinates":[-122.82033,49.183921]},"properties":{"OBJECTID":2883,"FACILITYID":"1002330909","BIKE_RACK_TYPE":"Inverted U","ADDRESS":"14600 100 Ave","OPERATING_LOCATION":null,"OWNER":"Parks","CAPACITY":2,"COMMENTS":null}},{"type":"Feature","id":642,"geometry":{"type":"Point","coordinates":[-122.800693,49.186006]},"properties":{"OBJECTID":642,"FACILITYID":"1002328297","BIKE_RACK_TYPE":"Inverted U","ADDRESS":"157-100090 152 St","OPERATING_LOCATION":null,"OWNER":"Engineering","CAPACITY":2,"COMMENTS":null}},{"type":"Feature","id":647,"geometry":{"type":"Point","coordinates":[-122.842949,49.134817]},"properties":{"OBJECTID":647,"FACILITYID":"1002328313","BIKE_RACK_TYPE":"Inverted U","ADDRESS":"7327 137 St","OPERATING_LOCATION":null,"OWNER":"Engineering","CAPACITY":2,"COMMENTS":null}},{"type":"Feature","id":649,"geometry":{"type":"Point","coordinates":[-122.735069,49.107584]},"properties":{"OBJECTID":649,"FACILITYID":"1002328316","BIKE_RACK_TYPE":"Inverted U","ADDRESS":"5795 176 St","OPERATING_LOCATION":null,"OWNER":"Engineering","CAPACITY":2,"COMMENTS":null}}]}