{"type":"FeatureCollection","features":[{"type":"Feature","id":16,"geometry":{"type":"Point","coordinates":[-122.874181,49.204428]},"properties":{"OBJECTID":16,"PL_NAME":"Scott Rd Stn"}},{"type":"Feature","id":17,"geometry":{"type":"Point","coordinates":[-122.850602,49.198912]},"properties":{"OBJECTID":17,"PL_NAME":"Gateway Stn"}},{"type":"Feature","id":18,"geometry":{"type":"Point","coordinates":[-122.847868,49.189496]},"properties":{"OBJECTID":18,"PL_NAME":"Surrey Central Stn"}},{"type":"Feature","id":19,"geometry":{"type":"Point","coordinates":[-122.844576,49.18273]},"properties":{"OBJECTID":19,"PL_NAME":"King George Stn"}}]}